[{"OBJECT_NAME":"LEMUR-2-LUCILLE-ROSE","OBJECT_ID":"2025-135BV","EPOCH":"2026-03-09T20:33:39.744864","MEAN_MOTION":14.98437227,"ECCENTRICITY":0.00099823,"INCLINATION":97.7607,"RA_OF_ASC_NODE":185.354,"ARG_OF_PERICENTER":240.475,"MEAN_ANOMALY":119.5478,"EPHEMERIS_TYPE":0,"CLASSIFICATION_TYPE":"U","NORAD_CAT_ID":65403,"ELEMENT_SET_NO":999,"REV_AT_EPOCH":3375,"BSTAR":0.0012144011,"MEAN_MOTION_DOT":0.00014478,"MEAN_MOTION_DDOT":0},{"OBJECT_NAME":"CZ-2D DEB","OBJECT_ID":"2017-060E","EPOCH":"2026-03-09T23:34:37.430688","MEAN_MOTION":14.93647319,"ECCENTRICITY":0.00123991,"INCLINATION":97.5938,"RA_OF_ASC_NODE":76.1834,"ARG_OF_PERICENTER":70.348,"MEAN_ANOMALY":289.9078,"EPHEMERIS_TYPE":0,"CLASSIFICATION_TYPE":"U","NORAD_CAT_ID":44612,"ELEMENT_SET_NO":999,"REV_AT_EPOCH":45207,"BSTAR":0.00055303734,"MEAN_MOTION_DOT":5.798e-5,"MEAN_MOTION_DDOT":0}]
